QIANFAN-65              
1 62795U 25016L   25297.69986828  .00000049  00000+0  57303-4 0  9998
2 62795  88.9726 108.1318 0015385 121.6588 238.6066 13.50973163 40627
QIANFAN-66              
1 62796U 25016M   25297.72874521  .00000062  00000+0  77256-4 0  9993
2 62796  88.9745 108.0894 0016565 117.8004 242.4828 13.50977259 40672
QIANFAN-67              
1 62797U 25016N   25297.65872536  .00000066  00000+0  82579-4 0  9998
2 62797  88.9735 108.1269 0016440 124.2360 236.0352 13.50969999 40637
QIANFAN-68              
1 62798U 25016P   25297.72457134  .00000055  00000+0  66966-4 0  9990
2 62798  88.9739 108.1635 0016523 122.4810 237.7941 13.50972307 40629
QIANFAN-69              
1 62799U 25016Q   25297.74108241  .00000057  00000+0  69892-4 0  9998
2 62799  88.9718 108.0418 0017260 123.5605 236.7197 13.50969761 40664
QIANFAN-70              
1 62800U 25016R   25297.75738508  .00000056  00000+0  67736-4 0  9991
2 62800  88.9739 108.1682 0016981 114.6400 245.6522 13.50972325 40624
QIANFAN-71              
1 62801U 25016S   25297.75336047  .00000048  00000+0  55982-4 0  9995
2 62801  88.9733 108.1511 0017115 126.7319 233.5406 13.50973442 40621
QIANFAN-72              
1 62802U 25016T   25297.69576186  .00000057  00000+0  68969-4 0  9998
2 62802  88.9723 108.1753 0020236 134.1864 226.0955 13.50973145 40609
